[{"OBJECT_NAME":"STARLINK-32101","OBJECT_ID":"2024-144Y","EPOCH":"2026-03-09T16:37:27.229728","MEAN_MOTION":15.30192398,"ECCENTRICITY":0.00011867,"INCLINATION":53.1604,"RA_OF_ASC_NODE":216.8305,"ARG_OF_PERICENTER":101.4047,"MEAN_ANOMALY":258.7088,"EPHEMERIS_TYPE":0,"CLASSIFICATION_TYPE":"U","NORAD_CAT_ID":60447,"ELEMENT_SET_NO":999,"REV_AT_EPOCH":8931,"BSTAR":5.3529537e-5,"MEAN_MOTION_DOT":1.226e-5,"MEAN_MOTION_DDOT":0},{"OBJECT_NAME":"TOMORROW-S2","OBJECT_ID":"2024-149T","EPOCH":"2026-03-09T18:02:42.746496","MEAN_MOTION":15.30674935,"ECCENTRICITY":0.0001648,"INCLINATION":97.3857,"RA_OF_ASC_NODE":150.0385,"ARG_OF_PERICENTER":234.3331,"MEAN_ANOMALY":125.7757,"EPHEMERIS_TYPE":0,"CLASSIFICATION_TYPE":"U","NORAD_CAT_ID":60485,"ELEMENT_SET_NO":999,"REV_AT_EPOCH":8686,"BSTAR":0.00027683033,"MEAN_MOTION_DOT":8.133e-5,"MEAN_MOTION_DDOT":0}]
